NORAD_CAT_ID,OBJECT_NAME,OBJECT_TYPE,EPOCH,MEAN_MOTION,ECCENTRICITY,INCLINATION,RA_OF_ASC_NODE,ARG_OF_PERICENTER,MEAN_ANOMALY,BSTAR,MEAN_MOTION_DOT,MEAN_MOTION_DDOT,TLE_LINE0,TLE_LINE1,TLE_LINE2,SEMIMAJOR_AXIS,PERIOD,APOGEE,PERIGEE,DECAYED
53933.0,STARLINK-4782,PAYLOAD,2023-03-19 04:43:15,15.08872458,8.4e-05,53.2165,141.4313,68.9393,291.1689,0.0013289,0.00020943,0.0,0 STARLINK-4782,1 53933U 22119AZ  23078.19671202  .00020943  00000-0  13289-2 0  9999,2 53933  53.2165 141.4313 0000840  68.9393 291.1689 15.08872458 27524,6917.781,95.436,540.227,539.065,0.0
53933.0,STARLINK-4782,PAYLOAD,2023-03-19 11:04:48,15.08861626,7.63e-05,53.2177,140.2432,75.6684,284.4393,0.0015792,0.00024949,0.0,0 STARLINK-4782,1 53933U 22119AZ  23078.46166901  .00024949  00000-0  15792-2 0  9995,2 53933  53.2177 140.2432 0000763  75.6684 284.4393 15.08861626 27564,6917.814,95.436,540.207,539.151,0.0
53933.0,STARLINK-4782,PAYLOAD,2023-03-19 20:37:07,15.0884587,0.0001069,53.2175,138.4594,85.0998,275.0116,0.0017429,0.00027564,0.0,0 STARLINK-4782,1 53933U 22119AZ  23078.85911030  .00027564  00000-0  17429-2 0  9994,2 53933  53.2175 138.4594 0001069  85.0998 275.0116 15.08845870 28049,6917.862,95.437,540.467,538.988,0.0
53933.0,STARLINK-4782,PAYLOAD,2023-03-20 04:34:02,15.08848522,0.0001271,53.2191,136.9762,99.7349,260.3787,0.00069036,0.00010719,0.0,0 STARLINK-4782,1 53933U 22119AZ  23079.19031014  .00010719  00000-0  69036-3 0  9993,2 53933  53.2191 136.9762 0001271  99.7349 260.3787 15.08848522 27670,6917.854,95.437,540.599,538.84,0.0
53933.0,STARLINK-4782,PAYLOAD,2023-03-20 09:20:12,15.08835446,0.0001102,53.2178,136.0805,107.654,252.4572,0.00057548,8.882e-05,0.0,0 STARLINK-4782,1 53933U 22119AZ  23079.38903319  .00008882  00000-0  57548-3 0  9993,2 53933  53.2178 136.0805 0001102 107.6540 252.4572 15.08835446 27708,6917.894,95.438,540.522,538.997,0.0
53933.0,STARLINK-4782,PAYLOAD,2023-03-20 20:27:54,15.0884391,8.67e-05,53.2174,133.9992,91.5124,268.5967,0.0007277,0.00011314,0.0,0 STARLINK-4782,1 53933U 22119AZ  23079.85271392  .00011314  00000-0  72770-3 0  9992,2 53933  53.2174 133.9992 0000867  91.5124 268.5967 15.08843910 28198,6917.868,95.437,540.333,539.134,0.0
53933.0,STARLINK-4782,PAYLOAD,2023-03-21 04:24:50,15.08837362,0.0001133,53.2194,132.5132,98.7886,261.3234,0.0001712,2.438e-05,0.0,0 STARLINK-4782,1 53933U 22119AZ  23080.18391608  .00002438  00000-0  17120-3 0  9998,2 53933  53.2194 132.5132 0001133  98.7886 261.3234 15.08837362 27823,6917.888,95.438,540.537,538.97,0.0
53933.0,STARLINK-4782,PAYLOAD,2023-03-21 10:46:22,15.08840127,0.0001069,53.2191,131.3234,92.7621,267.3494,0.00016796,2.386e-05,0.0,0 STARLINK-4782,1 53933U 22119AZ  23080.44887574  .00002386  00000-0  16796-3 0  9999,2 53933  53.2191 131.3234 0001069  92.7621 267.3494 15.08840127 28287,6917.88,95.438,540.485,539.005,0.0
53933.0,STARLINK-4782,PAYLOAD,2023-03-21 20:18:41,15.08836733,0.0001064,53.2184,129.539,90.852,269.2594,0.00015879,2.24e-05,0.0,0 STARLINK-4782,1 53933U 22119AZ  23080.84631834  .00002240  00000-0  15879-3 0  9999,2 53933  53.2184 129.5390 0001064  90.8520 269.2594 15.08836733 28340,6917.89,95.438,540.491,539.019,0.0
53933.0,STARLINK-4782,PAYLOAD,2023-03-22 04:15:37,15.08831116,0.0001097,53.2181,128.0514,93.6371,266.4746,4.8777e-05,4.88e-06,0.0,0 STARLINK-4782,1 53933U 22119AZ  23081.17752257  .00000488  00000-0  48777-4 0  9995,2 53933  53.2181 128.0514 0001097  93.6371 266.4746 15.08831116 27976,6917.908,95.438,540.531,539.014,0.0
53933.0,STARLINK-4782,PAYLOAD,2023-03-22 20:09:29,15.08841227,0.0001234,53.2182,125.0753,81.0959,279.0172,0.00013545,1.869e-05,0.0,0 STARLINK-4782,1 53933U 22119AZ  23081.83992066  .00001869  00000-0  13545-3 0  9990,2 53933  53.2182 125.0753 0001234  81.0959 279.0172 15.08841227 28074,6917.877,95.437,540.595,538.888,0.0
53933.0,STARLINK-4782,PAYLOAD,2023-03-23 08:52:34,15.08847485,0.0001239,53.2172,122.6972,85.4913,274.6221,0.00021283,3.102e-05,0.0,0 STARLINK-4782,1 53933U 22119AZ  23082.36983855  .00003102  00000-0  21283-3 0  9995,2 53933  53.2172 122.6972 0001239  85.4913 274.6221 15.08847485 28575,6917.858,95.437,540.58,538.865,0.0
53933.0,STARLINK-4782,PAYLOAD,2023-03-23 20:00:15,15.0885945,0.0001276,53.218,120.6182,75.78,284.3334,0.00032188,4.841e-05,0.0,0 STARLINK-4782,1 53933U 22119AZ  23082.83351200  .00004841  00000-0  32188-3 0  9997,2 53933  53.2180 120.6182 0001276  75.7800 284.3334 15.08859450 28223,6917.821,95.436,540.569,538.803,0.0
53933.0,STARLINK-4782,PAYLOAD,2023-03-24 08:43:20,15.08868541,0.0001344,53.2179,118.2403,73.3788,286.7351,0.00061915,9.587e-05,0.0,0 STARLINK-4782,1 53933U 22119AZ  23083.36342872  .00009587  00000-0  61915-3 0  9993,2 53933  53.2179 118.2403 0001344  73.3788 286.7351 15.08868541 28726,6917.793,95.436,540.588,538.728,0.0
53933.0,STARLINK-4782,PAYLOAD,2023-03-24 19:51:03,15.08834062,0.0002064,53.2158,116.1625,50.397,309.7204,-0.00019658,-3.415e-05,0.0,0 STARLINK-4782,1 53933U 22119AZ  23083.82711923 -.00003415  00000-0 -19658-3 0  9994,2 53933  53.2158 116.1625 0002064  50.3970 309.7204 15.08834062 28379,6917.899,95.438,541.191,538.336,0.0
53933.0,STARLINK-4782,PAYLOAD,2023-03-25 02:12:36,15.08825111,0.0001563,53.2166,114.9674,96.7857,263.3313,-0.00026755,-4.542e-05,0.0,0 STARLINK-4782,1 53933U 22119AZ  23084.09208467 -.00004542  00000-0 -26755-3 0  9996,2 53933  53.2166 114.9674 0001563  96.7857 263.3313 15.08825111 28415,6917.926,95.438,540.872,538.71,0.0
53933.0,STARLINK-4782,PAYLOAD,2023-03-25 08:34:09,15.08816258,0.0001498,53.2179,113.7759,117.7574,242.357,-0.00036191,-6.039e-05,0.0,0 STARLINK-4782,1 53933U 22119AZ  23084.35705076 -.00006039  00000-0 -36191-3 0  9991,2 53933  53.2179 113.7759 0001498 117.7574 242.3570 15.08816258 28455,6917.953,95.439,540.854,538.782,0.0
53933.0,STARLINK-4782,PAYLOAD,2023-03-26 05:14:10,15.08831726,0.0001236,53.2187,109.912,105.3042,254.8087,0.00019649,2.84e-05,0.0,0 STARLINK-4782,1 53933U 22119AZ  23085.21817675  .00002840  00000-0  19649-3 0  9999,2 53933  53.2187 109.9120 0001236 105.3042 254.8087 15.08831726 28588,6917.906,95.438,540.626,538.916,0.0
53933.0,STARLINK-4782,PAYLOAD,2023-03-26 17:57:15,15.08853273,0.000129,53.2183,107.5331,101.1462,258.9675,0.00096585,0.00015122,0.0,0 STARLINK-4782,1 53933U 22119AZ  23085.74809961  .00015122  00000-0  96585-3 0  9997,2 53933  53.2183 107.5331 0001290 101.1462 258.9675 15.08853273 29087,6917.84,95.437,540.597,538.812,0.0
53933.0,STARLINK-4782,PAYLOAD,2023-03-27 05:04:57,15.08872836,0.0001216,53.2178,105.4516,96.1733,263.9398,0.0010897,0.00017113,0.0,0 STARLINK-4782,1 53933U 22119AZ  23086.21177137  .00017113  00000-0  10897-2 0  9996,2 53933  53.2178 105.4516 0001216  96.1733 263.9398 15.08872836 28730,6917.78,95.435,540.486,538.804,0.0
53933.0,STARLINK-4782,PAYLOAD,2023-03-27 08:15:43,15.08877504,0.0001217,53.2179,104.8569,97.2854,262.8277,0.0011054,0.00017366,0.0,0 STARLINK-4782,1 53933U 22119AZ  23086.34424814  .00017366  00000-0  11054-2 0  9993,2 53933  53.2179 104.8569 0001217  97.2854 262.8277 15.08877504 29179,6917.766,95.435,540.473,538.789,0.0
53933.0,STARLINK-4782,PAYLOAD,2023-03-27 17:48:01,15.08869963,0.0001346,53.2183,103.0734,103.2151,256.8992,0.00055032,8.488e-05,0.0,0 STARLINK-4782,1 53933U 22119AZ  23086.74168387  .00008488  00000-0  55032-3 0  9997,2 53933  53.2183 103.0734 0001346 103.2151 256.8992 15.08869963 28817,6917.789,95.436,540.585,538.723,0.0
53933.0,STARLINK-4782,PAYLOAD,2023-03-28 04:55:43,15.08858176,0.0001375,53.2178,100.9909,99.661,260.4538,0.00020709,3.011e-05,0.0,0 STARLINK-4782,1 53933U 22119AZ  23087.20536103  .00003011  00000-0  20709-3 0  9994,2 53933  53.2178 100.9909 0001375  99.6610 260.4538 15.08858176 28889,6917.825,95.436,540.641,538.739,0.0
53933.0,STARLINK-4782,PAYLOAD,2023-03-28 08:06:29,15.08860118,0.0001411,53.2179,100.3962,98.981,261.1342,0.00039565,6.018e-05,0.0,0 STARLINK-4782,1 53933U 22119AZ  23087.33783989  .00006018  00000-0  39565-3 0  9994,2 53933  53.2179 100.3962 0001411  98.9810 261.1342 15.08860118 29328,6917.819,95.436,540.66,538.708,0.0
53933.0,STARLINK-4782,PAYLOAD,2023-03-28 17:38:48,15.08851988,0.0001517,53.2179,98.6136,90.4139,269.7026,0.0003616,5.473e-05,0.0,0 STARLINK-4782,1 53933U 22119AZ  23087.73528062  .00005473  00000-0  36160-3 0  9999,2 53933  53.2179  98.6136 0001517  90.4139 269.7026 15.08851988 28965,6917.844,95.437,540.758,538.659,0.0
53933.0,STARLINK-4782,PAYLOAD,2023-03-29 01:35:44,15.08838668,0.0001339,53.2179,97.1273,101.7212,258.3931,9.1699e-05,1.172e-05,0.0,0 STARLINK-4782,1 53933U 22119AZ  23088.06648220  .00001172  00000-0  91699-4 0  9996,2 53933  53.2179  97.1273 0001339 101.7212 258.3931 15.08838668 29017,6917.884,95.438,540.676,538.823,0.0
53933.0,STARLINK-4782,PAYLOAD,2023-03-29 09:32:39,15.08844294,0.0001487,53.2181,95.6382,92.9659,267.1503,-3.1865e-05,-7.95e-06,0.0,0 STARLINK-4782,1 53933U 22119AZ  23088.39768204 -.00000795  00000-0 -31865-4 0  9998,2 53933  53.2181  95.6382 0001487  92.9659 267.1503 15.08844294 29480,6917.867,95.437,540.761,538.704,0.0
53933.0,STARLINK-4782,PAYLOAD,2023-03-29 17:29:35,15.08844088,0.000159,53.2187,94.1507,86.4773,273.6401,8.6596e-05,1.091e-05,0.0,0 STARLINK-4782,1 53933U 22119AZ  23088.72888359  .00001091  00000-0  86596-4 0  9998,2 53933  53.2187  94.1507 0001590  86.4773 273.6401 15.08844088 29535,6917.868,95.437,540.833,538.633,0.0
53933.0,STARLINK-4782,PAYLOAD,2023-03-30 07:48:03,15.08842334,0.0001508,53.2183,91.4758,88.5021,271.6144,0.00015712,2.214e-05,0.0,0 STARLINK-4782,1 53933U 22119AZ  23089.32504584  .00002214  00000-0  15712-3 0  9999,2 53933  53.2183  91.4758 0001508  88.5021 271.6144 15.08842334 29205,6917.873,95.437,540.781,538.695,0.0
53933.0,STARLINK-4782,PAYLOAD,2023-03-31 09:14:13,15.08854803,0.0001462,53.2178,86.7173,88.0356,272.0803,0.00039706,6.039e-05,0.0,0 STARLINK-4782,1 53933U 22119AZ  23090.38488145  .00006039  00000-0  39706-3 0  9999,2 53933  53.2178  86.7173 0001462  88.0356 272.0803 15.08854803 29360,6917.835,95.437,540.712,538.689,0.0
